[{"norad_id":"65888","company":"STARLINK","tle_line2":"2 65888  53.1596 147.8014 0001418  58.4080 301.7059 15.30222223  8465","launch_date":"2025-10-07","type":"LEO","tle_line1":"1 65888U 25224G   25326.84559431  .00038622  00000+0  13085-2 0  9996","satellite_name":"STARLINK-35362"},{"norad_id":"65889","company":"STARLINK","tle_line2":"2 65889  53.1598 148.4517 0001269 107.9776 252.1363 15.30194387  8476","launch_date":"2025-10-07","type":"LEO","tle_line1":"1 65889U 25224H   25326.72445844  .00026267  00000+0  89599-3 0  9992","satellite_name":"STARLINK-35193"},{"norad_id":"65890","company":"STARLINK","tle_line2":"2 65890  53.1597 147.8385 0001281  54.6658 305.4462 15.30205225  8515","launch_date":"2025-10-07","type":"LEO","tle_line1":"1 65890U 25224J   25326.85192448  .00023745  00000+0  81115-3 0  9991","satellite_name":"STARLINK-34542"},{"norad_id":"65891","company":"STARLINK","tle_line2":"2 65891  53.1594 148.1918 0001948  87.9795 272.1429 15.30241415  8503","launch_date":"2025-10-07","type":"LEO","tle_line1":"1 65891U 25224K   25326.79609734  .00040260  00000+0  13623-2 0  9995","satellite_name":"STARLINK-34791"},{"norad_id":"65892","company":"STARLINK","tle_line2":"2 65892  53.1611 147.6711 0000659 101.5389 258.5686 15.30194894  8443","launch_date":"2025-10-07","type":"LEO","tle_line1":"1 65892U 25224L   25326.82552890  .00015521  00000+0  53513-3 0  9995","satellite_name":"STARLINK-34853"},{"norad_id":"65893","company":"STARLINK","tle_line2":"2 65893  53.1605 147.8064 0001104  79.5983 280.5142 15.30207840  8516","launch_date":"2025-10-07","type":"LEO","tle_line1":"1 65893U 25224M   25326.84875530  .00026122  00000+0  89076-3 0  9999","satellite_name":"STARLINK-34921"},{"norad_id":"65894","company":"STARLINK","tle_line2":"2 65894  53.1602 147.7605 0001135  85.0536 275.0594 15.30209003  8517","launch_date":"2025-10-07","type":"LEO","tle_line1":"1 65894U 25224N   25326.84137076  .00031271  00000+0  10632-2 0  9998","satellite_name":"STARLINK-34672"},{"norad_id":"65895","company":"STARLINK","tle_line2":"2 65895  53.1616 147.9781 0000789 117.9186 242.1894 15.30201189  8504","launch_date":"2025-10-07","type":"LEO","tle_line1":"1 65895U 25224P   25326.76338970  .00022527  00000+0  77036-3 0  9992","satellite_name":"STARLINK-34898"},{"norad_id":"65896","company":"STARLINK","tle_line2":"2 65896  53.1610 147.7188 0001228  74.4013 285.7123 15.30199511  8517","launch_date":"2025-10-07","type":"LEO","tle_line1":"1 65896U 25224Q   25326.83503794  .00032994  00000+0  11212-2 0  9991","satellite_name":"STARLINK-34906"},{"norad_id":"65897","company":"STARLINK","tle_line2":"2 65897  53.1588 147.5976 0001231 108.1936 251.9199 15.30195406  8469","launch_date":"2025-10-07","type":"LEO","tle_line1":"1 65897U 25224R   25326.81604183  .00029764  00000+0  10132-2 0  9995","satellite_name":"STARLINK-34934"},{"norad_id":"65898","company":"STARLINK","tle_line2":"2 65898  53.1602 147.6405 0001270  76.2346 283.8796 15.30191864  8515","launch_date":"2025-10-07","type":"LEO","tle_line1":"1 65898U 25224S   25326.82237758  .00024214  00000+0  82722-3 0  9997","satellite_name":"STARLINK-34936"},{"norad_id":"65899","company":"STARLINK","tle_line2":"2 65899  53.1587 147.2276 0001142  89.1043 271.0088 15.30195991  8513","launch_date":"2025-10-07","type":"LEO","tle_line1":"1 65899U 25224T   25326.87080534  .00015668  00000+0  54009-3 0  9991","satellite_name":"STARLINK-35272"},{"norad_id":"65900","company":"STARLINK","tle_line2":"2 65900  53.1577 147.8141 0000863 101.1494 258.9604 15.30196029  8494","launch_date":"2025-10-07","type":"LEO","tle_line1":"1 65900U 25224U   25326.73700823  .00025325  00000+0  86436-3 0  9999","satellite_name":"STARLINK-35264"},{"norad_id":"65901","company":"STARLINK","tle_line2":"2 65901  53.1593 147.7673 0001183  85.4737 274.6399 15.30197691  8494","launch_date":"2025-10-07","type":"LEO","tle_line1":"1 65901U 25224V   25326.84348183  .00022744  00000+0  77775-3 0  9997","satellite_name":"STARLINK-35249"},{"norad_id":"65902","company":"STARLINK","tle_line2":"2 65902  53.1588 147.8335 0001102  74.1056 286.0066 15.30198779  8514","launch_date":"2025-10-07","type":"LEO","tle_line1":"1 65902U 25224W   25326.85403222  .00026219  00000+0  89427-3 0  9993","satellite_name":"STARLINK-35278"},{"norad_id":"65903","company":"STARLINK","tle_line2":"2 65903  53.1583 148.1956 0001155 104.7176 255.3953 15.30192678  8486","launch_date":"2025-10-07","type":"LEO","tle_line1":"1 65903U 25224X   25326.79821602  .00012539  00000+0  43487-3 0  9999","satellite_name":"STARLINK-35210"}]