[{"OBJECT_NAME":"STARLINK-35362","OBJECT_ID":"2025-224G","EPOCH":"2025-11-22T20:17:39.348384","MEAN_MOTION":15.30222223,"ECCENTRICITY":0.0001418,"INCLINATION":53.1596,"RA_OF_ASC_NODE":147.8014,"ARG_OF_PERICENTER":58.408,"MEAN_ANOMALY":301.7059,"EPHEMERIS_TYPE":0,"CLASSIFICATION_TYPE":"U","NORAD_CAT_ID":65888,"ELEMENT_SET_NO":999,"REV_AT_EPOCH":846,"BSTAR":0.0013085,"MEAN_MOTION_DOT":0.00038622,"MEAN_MOTION_DDOT":0},{"OBJECT_NAME":"STARLINK-35193","OBJECT_ID":"2025-224H","EPOCH":"2025-11-22T17:23:13.209216","MEAN_MOTION":15.30194387,"ECCENTRICITY":0.0001269,"INCLINATION":53.1598,"RA_OF_ASC_NODE":148.4517,"ARG_OF_PERICENTER":107.9776,"MEAN_ANOMALY":252.1363,"EPHEMERIS_TYPE":0,"CLASSIFICATION_TYPE":"U","NORAD_CAT_ID":65889,"ELEMENT_SET_NO":999,"REV_AT_EPOCH":847,"BSTAR":0.00089599,"MEAN_MOTION_DOT":0.00026267,"MEAN_MOTION_DDOT":0},{"OBJECT_NAME":"STARLINK-34542","OBJECT_ID":"2025-224J","EPOCH":"2025-11-22T20:26:46.275072","MEAN_MOTION":15.30205225,"ECCENTRICITY":0.0001281,"INCLINATION":53.1597,"RA_OF_ASC_NODE":147.8385,"ARG_OF_PERICENTER":54.6658,"MEAN_ANOMALY":305.4462,"EPHEMERIS_TYPE":0,"CLASSIFICATION_TYPE":"U","NORAD_CAT_ID":65890,"ELEMENT_SET_NO":999,"REV_AT_EPOCH":851,"BSTAR":0.00081115,"MEAN_MOTION_DOT":0.00023745,"MEAN_MOTION_DDOT":0},{"OBJECT_NAME":"STARLINK-34791","OBJECT_ID":"2025-224K","EPOCH":"2025-11-22T19:06:22.810176","MEAN_MOTION":15.30241415,"ECCENTRICITY":0.0001948,"INCLINATION":53.1594,"RA_OF_ASC_NODE":148.1918,"ARG_OF_PERICENTER":87.9795,"MEAN_ANOMALY":272.1429,"EPHEMERIS_TYPE":0,"CLASSIFICATION_TYPE":"U","NORAD_CAT_ID":65891,"ELEMENT_SET_NO":999,"REV_AT_EPOCH":850,"BSTAR":0.0013623,"MEAN_MOTION_DOT":0.0004026,"MEAN_MOTION_DDOT":0},{"OBJECT_NAME":"STARLINK-34853","OBJECT_ID":"2025-224L","EPOCH":"2025-11-22T19:48:45.696960","MEAN_MOTION":15.30194894,"ECCENTRICITY":6.59e-5,"INCLINATION":53.1611,"RA_OF_ASC_NODE":147.6711,"ARG_OF_PERICENTER":101.5389,"MEAN_ANOMALY":258.5686,"EPHEMERIS_TYPE":0,"CLASSIFICATION_TYPE":"U","NORAD_CAT_ID":65892,"ELEMENT_SET_NO":999,"REV_AT_EPOCH":844,"BSTAR":0.00053513,"MEAN_MOTION_DOT":0.00015521,"MEAN_MOTION_DDOT":0},{"OBJECT_NAME":"STARLINK-34921","OBJECT_ID":"2025-224M","EPOCH":"2025-11-22T20:22:12.457920","MEAN_MOTION":15.3020784,"ECCENTRICITY":0.0001104,"INCLINATION":53.1605,"RA_OF_ASC_NODE":147.8064,"ARG_OF_PERICENTER":79.5983,"MEAN_ANOMALY":280.5142,"EPHEMERIS_TYPE":0,"CLASSIFICATION_TYPE":"U","NORAD_CAT_ID":65893,"ELEMENT_SET_NO":999,"REV_AT_EPOCH":851,"BSTAR":0.00089076,"MEAN_MOTION_DOT":0.00026122,"MEAN_MOTION_DDOT":0},{"OBJECT_NAME":"STARLINK-34672","OBJECT_ID":"2025-224N","EPOCH":"2025-11-22T20:11:34.433664","MEAN_MOTION":15.30209003,"ECCENTRICITY":0.0001135,"INCLINATION":53.1602,"RA_OF_ASC_NODE":147.7605,"ARG_OF_PERICENTER":85.0536,"MEAN_ANOMALY":275.0594,"EPHEMERIS_TYPE":0,"CLASSIFICATION_TYPE":"U","NORAD_CAT_ID":65894,"ELEMENT_SET_NO":999,"REV_AT_EPOCH":851,"BSTAR":0.0010632,"MEAN_MOTION_DOT":0.00031271,"MEAN_MOTION_DDOT":0},{"OBJECT_NAME":"STARLINK-34898","OBJECT_ID":"2025-224P","EPOCH":"2025-11-22T18:19:16.870080","MEAN_MOTION":15.30201189,"ECCENTRICITY":7.89e-5,"INCLINATION":53.1616,"RA_OF_ASC_NODE":147.9781,"ARG_OF_PERICENTER":117.9186,"MEAN_ANOMALY":242.1894,"EPHEMERIS_TYPE":0,"CLASSIFICATION_TYPE":"U","NORAD_CAT_ID":65895,"ELEMENT_SET_NO":999,"REV_AT_EPOCH":850,"BSTAR":0.00077036,"MEAN_MOTION_DOT":0.00022527,"MEAN_MOTION_DDOT":0},{"OBJECT_NAME":"STARLINK-34906","OBJECT_ID":"2025-224Q","EPOCH":"2025-11-22T20:02:27.278016","MEAN_MOTION":15.30199511,"ECCENTRICITY":0.0001228,"INCLINATION":53.161,"RA_OF_ASC_NODE":147.7188,"ARG_OF_PERICENTER":74.4013,"MEAN_ANOMALY":285.7123,"EPHEMERIS_TYPE":0,"CLASSIFICATION_TYPE":"U","NORAD_CAT_ID":65896,"ELEMENT_SET_NO":999,"REV_AT_EPOCH":851,"BSTAR":0.0011212,"MEAN_MOTION_DOT":0.00032994,"MEAN_MOTION_DDOT":0},{"OBJECT_NAME":"STARLINK-34934","OBJECT_ID":"2025-224R","EPOCH":"2025-11-22T19:35:06.014112","MEAN_MOTION":15.30195406,"ECCENTRICITY":0.0001231,"INCLINATION":53.1588,"RA_OF_ASC_NODE":147.5976,"ARG_OF_PERICENTER":108.1936,"MEAN_ANOMALY":251.9199,"EPHEMERIS_TYPE":0,"CLASSIFICATION_TYPE":"U","NORAD_CAT_ID":65897,"ELEMENT_SET_NO":999,"REV_AT_EPOCH":846,"BSTAR":0.0010132,"MEAN_MOTION_DOT":0.00029764,"MEAN_MOTION_DDOT":0},{"OBJECT_NAME":"STARLINK-34936","OBJECT_ID":"2025-224S","EPOCH":"2025-11-22T19:44:13.422912","MEAN_MOTION":15.30191864,"ECCENTRICITY":0.000127,"INCLINATION":53.1602,"RA_OF_ASC_NODE":147.6405,"ARG_OF_PERICENTER":76.2346,"MEAN_ANOMALY":283.8796,"EPHEMERIS_TYPE":0,"CLASSIFICATION_TYPE":"U","NORAD_CAT_ID":65898,"ELEMENT_SET_NO":999,"REV_AT_EPOCH":851,"BSTAR":0.00082722,"MEAN_MOTION_DOT":0.00024214,"MEAN_MOTION_DDOT":0},{"OBJECT_NAME":"STARLINK-35272","OBJECT_ID":"2025-224T","EPOCH":"2025-11-22T20:53:57.581376","MEAN_MOTION":15.30195991,"ECCENTRICITY":0.0001142,"INCLINATION":53.1587,"RA_OF_ASC_NODE":147.2276,"ARG_OF_PERICENTER":89.1043,"MEAN_ANOMALY":271.0088,"EPHEMERIS_TYPE":0,"CLASSIFICATION_TYPE":"U","NORAD_CAT_ID":65899,"ELEMENT_SET_NO":999,"REV_AT_EPOCH":851,"BSTAR":0.00054009,"MEAN_MOTION_DOT":0.00015668,"MEAN_MOTION_DDOT":0},{"OBJECT_NAME":"STARLINK-35264","OBJECT_ID":"2025-224U","EPOCH":"2025-11-22T17:41:17.511072","MEAN_MOTION":15.30196029,"ECCENTRICITY":8.63e-5,"INCLINATION":53.1577,"RA_OF_ASC_NODE":147.8141,"ARG_OF_PERICENTER":101.1494,"MEAN_ANOMALY":258.9604,"EPHEMERIS_TYPE":0,"CLASSIFICATION_TYPE":"U","NORAD_CAT_ID":65900,"ELEMENT_SET_NO":999,"REV_AT_EPOCH":849,"BSTAR":0.00086436,"MEAN_MOTION_DOT":0.00025325,"MEAN_MOTION_DDOT":0},{"OBJECT_NAME":"STARLINK-35249","OBJECT_ID":"2025-224V","EPOCH":"2025-11-22T20:14:36.830112","MEAN_MOTION":15.30197691,"ECCENTRICITY":0.0001183,"INCLINATION":53.1593,"RA_OF_ASC_NODE":147.7673,"ARG_OF_PERICENTER":85.4737,"MEAN_ANOMALY":274.6399,"EPHEMERIS_TYPE":0,"CLASSIFICATION_TYPE":"U","NORAD_CAT_ID":65901,"ELEMENT_SET_NO":999,"REV_AT_EPOCH":849,"BSTAR":0.00077775,"MEAN_MOTION_DOT":0.00022744,"MEAN_MOTION_DDOT":0},{"OBJECT_NAME":"STARLINK-35278","OBJECT_ID":"2025-224W","EPOCH":"2025-11-22T20:29:48.383808","MEAN_MOTION":15.30198779,"ECCENTRICITY":0.0001102,"INCLINATION":53.1588,"RA_OF_ASC_NODE":147.8335,"ARG_OF_PERICENTER":74.1056,"MEAN_ANOMALY":286.0066,"EPHEMERIS_TYPE":0,"CLASSIFICATION_TYPE":"U","NORAD_CAT_ID":65902,"ELEMENT_SET_NO":999,"REV_AT_EPOCH":851,"BSTAR":0.00089427,"MEAN_MOTION_DOT":0.00026219,"MEAN_MOTION_DDOT":0},{"OBJECT_NAME":"STARLINK-35210","OBJECT_ID":"2025-224X","EPOCH":"2025-11-22T19:09:25.864128","MEAN_MOTION":15.30192678,"ECCENTRICITY":0.0001155,"INCLINATION":53.1583,"RA_OF_ASC_NODE":148.1956,"ARG_OF_PERICENTER":104.7176,"MEAN_ANOMALY":255.3953,"EPHEMERIS_TYPE":0,"CLASSIFICATION_TYPE":"U","NORAD_CAT_ID":65903,"ELEMENT_SET_NO":999,"REV_AT_EPOCH":848,"BSTAR":0.00043487,"MEAN_MOTION_DOT":0.00012539,"MEAN_MOTION_DDOT":0}]
